GLOBALSTAR M024         
1 25883U 99043A   25262.49538748 -.00000004  00000+0  21656-2 0  9992
2 25883  51.9998 167.8300 0000746 278.2263 252.8097 11.10166738125332
GLOBALSTAR M027         
1 25884U 99043B   25262.44798124 -.00000102  00000+0 -14516-2 0  9991
2 25884  52.0185 248.5909 0021238 142.8609 217.3658 11.04372114151657
GLOBALSTAR M054         
1 25885U 99043C   25262.52517758 -.00000045  00000+0  67808-3 0  9991
2 25885  52.0180 359.8859 0004896 341.0040  31.6671 11.39220957129805
GLOBALSTAR M053         
1 25886U 99043D   25262.59135027 -.00000038  00000+0  89086-3 0  9998
2 25886  51.9999 312.0635 0003329 239.6024 290.1004 11.27666823130097
GLOBALSTAR M058         
1 25907U 99049A   25262.29927169 -.00000097  00000+0 -17393-3 0  9999
2 25907  51.9924 217.8696 0002454  86.4761 273.6355 11.93202886552778
GLOBALSTAR M050         
1 25908U 99049B   25262.60981657 -.00000101  00000+0 -14637-3 0  9991
2 25908  51.9972 217.6619 0008684 220.1869 310.6604 12.07456734159593
GLOBALSTAR M033         
1 25909U 99049C   25262.21810213 -.00000040  00000+0  50074-3 0  9994
2 25909  51.9901  84.0720 0014838  96.9673 263.2862 12.20298167547224
GLOBALSTAR M055         
1 25910U 99049D   25262.56522770 -.00000074  00000+0  17332-3 0  9999
2 25910  52.0005  89.2486 0006658 335.1166  24.9364 12.29432290179894
